{
  "norad_id": 59957,
  "name": "STARLINK-11142 [DTC]",
  "history": [
    {
      "epoch": "2026-03-28T14:54:50.308704",
      "apogee_km": 360.71879348115,
      "perigee_km": 358.686661019412,
      "latitude_deg": 6.34370190549427,
      "longitude_deg": -124.64410144020803,
      "semi_major_axis_km": 6737.839727250281,
      "eccentricity": 0.0001508,
      "inclination_deg": 53.1587,
      "raan_deg": 157.6222,
      "arg_perigee_deg": 98.3594,
      "mean_anomaly_deg": 261.7595,
      "mean_motion_rev_day": 15.69718395
    }
  ]
}